HERMES-4                
1 63833U 25052BP  26068.92081747  .00021364  00000+0  81237-3 0  9996
2 63833  97.4000 323.4610 0002652 154.9526 205.1842 15.26796135 54782
STARLINK-35891          
1 67045U 25294R   26068.93698693  .00037437  00000+0  13633-2 0  9990
2 67045  43.0028  36.9623 0001536 267.3111  92.7565 15.27574617 14831
